NORAD_CAT_ID,OBJECT_NAME,OBJECT_TYPE,EPOCH,MEAN_MOTION,ECCENTRICITY,INCLINATION,RA_OF_ASC_NODE,ARG_OF_PERICENTER,MEAN_ANOMALY,BSTAR,MEAN_MOTION_DOT,MEAN_MOTION_DDOT,TLE_LINE0,TLE_LINE1,TLE_LINE2,SEMIMAJOR_AXIS,PERIOD,APOGEE,PERIGEE,DECAYED
53890.0,STARLINK-5050,PAYLOAD,2024-02-22 03:11:26,15.08834715,0.0001458,53.2197,40.333,111.8694,248.2453,9.958e-05,1.297e-05,0.0,0 STARLINK-5050,1 53890U 22119E   24053.13294065  .00001297  00000-0  99580-4 0  9998,2 53890  53.2197  40.3330 0001458 111.8694 248.2453 15.08834715 79056,6917.897,95.438,540.77,538.753,0.0
53890.0,STARLINK-5050,PAYLOAD,2024-02-22 07:57:35,15.08837524,0.0001523,53.22,39.4394,107.4867,252.6292,0.00013694,1.892e-05,0.0,0 STARLINK-5050,1 53890U 22119E   24053.33165925  .00001892  00000-0  13694-3 0  9994,2 53890  53.2200  39.4394 0001523 107.4867 252.6292 15.08837524 79507,6917.888,95.438,540.807,538.699,0.0
53890.0,STARLINK-5050,PAYLOAD,2024-02-22 15:54:31,15.08840515,0.0001455,53.218,37.9517,96.9113,263.2044,0.00013493,1.86e-05,0.0,0 STARLINK-5050,1 53890U 22119E   24053.66285907  .00001860  00000-0  13493-3 0  9995,2 53890  53.2180  37.9517 0001455  96.9113 263.2044 15.08840515 79556,6917.879,95.438,540.75,538.737,0.0
53890.0,STARLINK-5050,PAYLOAD,2024-02-23 06:12:59,15.08845776,0.0001474,53.2182,35.2751,95.2396,264.8764,0.00011035,1.469e-05,0.0,0 STARLINK-5050,1 53890U 22119E   24054.25901631  .00001469  00000-0  11035-3 0  9995,2 53890  53.2182  35.2751 0001474  95.2396 264.8764 15.08845776 79229,6917.863,95.437,540.747,538.708,0.0
53890.0,STARLINK-5050,PAYLOAD,2024-02-23 15:45:18,15.08841571,0.0001396,53.2174,33.4874,80.5738,279.5412,5.4115e-05,5.73e-06,0.0,0 STARLINK-5050,1 53890U 22119E   24054.65645842  .00000573  00000-0  54115-4 0  9990,2 53890  53.2174  33.4874 0001396  80.5738 279.5412 15.08841571 79701,6917.876,95.437,540.706,538.775,0.0
53890.0,STARLINK-5050,PAYLOAD,2024-02-24 02:53:00,15.08835458,0.0001624,53.2179,31.4049,80.9756,279.142,6.6491e-05,7.7e-06,0.0,0 STARLINK-5050,1 53890U 22119E   24055.12014359  .00000770  00000-0  66491-4 0  9995,2 53890  53.2179  31.4049 0001624  80.9756 279.1420 15.08835458 79359,6917.894,95.438,540.883,538.636,0.0
53890.0,STARLINK-5050,PAYLOAD,2024-02-24 07:39:09,15.08845854,0.0001454,53.2191,30.514,82.0098,278.1059,6.4613e-05,7.41e-06,0.0,0 STARLINK-5050,1 53890U 22119E   24055.31886032  .00000741  00000-0  64613-4 0  9993,2 53890  53.2191  30.5140 0001454  82.0098 278.1059 15.08845854 79806,6917.862,95.437,540.733,538.722,0.0
53890.0,STARLINK-5050,PAYLOAD,2024-02-24 15:36:05,15.08845367,0.0001565,53.219,29.0294,86.9876,273.1295,0.00010721,1.419e-05,0.0,0 STARLINK-5050,1 53890U 22119E   24055.65006058  .00001419  00000-0  10721-3 0  9995,2 53890  53.2190  29.0294 0001565  86.9876 273.1295 15.08845367 79433,6917.864,95.437,540.812,538.646,0.0
53890.0,STARLINK-5050,PAYLOAD,2024-02-25 07:29:55,15.08855498,0.0001412,53.2175,26.0515,96.5023,263.613,0.00023499,3.455e-05,0.0,0 STARLINK-5050,1 53890U 22119E   24056.31245233  .00003455  00000-0  23499-3 0  9997,2 53890  53.2175  26.0515 0001412  96.5023 263.6130 15.08855498 79956,6917.833,95.437,540.675,538.721,0.0
53890.0,STARLINK-5050,PAYLOAD,2024-02-26 04:09:57,15.08844855,0.0001566,53.2183,22.1866,100.8557,259.2612,0.00018198,2.61e-05,0.0,0 STARLINK-5050,1 53890U 22119E   24057.17357816  .00002610  00000-0  18198-3 0  9995,2 53890  53.2183  22.1866 0001566 100.8557 259.2612 15.08844855 79661,6917.866,95.437,540.814,538.647,0.0
53890.0,STARLINK-5050,PAYLOAD,2024-02-26 21:39:12,15.08837111,0.0001482,53.2193,18.9169,109.6604,250.4549,2.8448e-05,1.65e-06,0.0,0 STARLINK-5050,1 53890U 22119E   24057.90222278  .00000165  00000-0  28448-4 0  9992,2 53890  53.2193  18.9169 0001482 109.6604 250.4549 15.08837111 80197,6917.889,95.438,540.779,538.729,0.0
53890.0,STARLINK-5050,PAYLOAD,2024-02-27 04:00:44,15.08841287,0.0001662,53.219,17.7281,107.953,252.1643,-4.397e-05,-9.88e-06,0.0,0 STARLINK-5050,1 53890U 22119E   24058.16718128 -.00000988  00000-0 -43970-4 0  9997,2 53890  53.2190  17.7281 0001662 107.9530 252.1643 15.08841287 79815,6917.876,95.437,540.891,538.592,0.0
53890.0,STARLINK-5050,PAYLOAD,2024-02-27 07:11:30,15.08836856,0.000155,53.2189,17.1316,113.3845,246.731,0.00014302,1.989e-05,0.0,0 STARLINK-5050,1 53890U 22119E   24058.29966293  .00001989  00000-0  14302-3 0  9995,2 53890  53.2189  17.1316 0001550 113.3845 246.7310 15.08836856 80258,6917.89,95.438,540.827,538.683,0.0
53890.0,STARLINK-5050,PAYLOAD,2024-02-28 13:23:50,15.08843274,0.0001356,53.2188,11.484,94.8886,265.2261,7.1606e-05,8.52e-06,0.0,0 STARLINK-5050,1 53890U 22119E   24059.55822102  .00000852  00000-0  71606-4 0  9994,2 53890  53.2188  11.4840 0001356  94.8886 265.2261 15.08843274 80442,6917.87,95.437,540.673,538.797,0.0
53890.0,STARLINK-5050,PAYLOAD,2024-02-29 02:06:55,15.08836396,0.0001565,53.2201,9.1089,104.3139,255.8027,0.0001137,1.522e-05,0.0,0 STARLINK-5050,1 53890U 22119E   24060.08814787  .00001522  00000-0  11370-3 0  9990,2 53890  53.2201   9.1089 0001565 104.3139 255.8027 15.08836396 80102,6917.891,95.438,540.839,538.674,0.0
53890.0,STARLINK-5050,PAYLOAD,2024-02-29 13:14:37,15.08839459,0.0001486,53.2198,7.0272,101.9636,258.1523,7.4824e-05,9.03e-06,0.0,0 STARLINK-5050,1 53890U 22119E   24060.55182762  .00000903  00000-0  74824-4 0  9999,2 53890  53.2198   7.0272 0001486 101.9636 258.1523 15.08839459 80598,6917.882,95.438,540.775,538.719,0.0
53890.0,STARLINK-5050,PAYLOAD,2024-03-01 03:33:05,15.08849921,0.0001488,53.2195,4.3493,103.6589,256.4569,5.2177e-05,5.43e-06,0.0,0 STARLINK-5050,1 53890U 22119E   24061.14798148  .00000543  00000-0  52177-4 0  9993,2 53890  53.2195   4.3493 0001488 103.6589 256.4569 15.08849921 80268,6917.85,95.437,540.744,538.686,0.0
53890.0,STARLINK-5050,PAYLOAD,2024-03-01 13:05:24,15.08841561,0.0001505,53.218,2.5606,81.6774,278.4389,5.3582e-05,5.65e-06,0.0,0 STARLINK-5050,1 53890U 22119E   24061.54542715  .00000565  00000-0  53582-4 0  9999,2 53890  53.2180   2.5606 0001505  81.6774 278.4389 15.08841561 80748,6917.876,95.437,540.782,538.699,0.0
53890.0,STARLINK-5050,PAYLOAD,2024-03-02 03:23:52,15.0884497,0.0001512,53.2185,359.8859,85.1296,274.9869,0.00011191,1.494e-05,0.0,0 STARLINK-5050,1 53890U 22119E   24062.14158414  .00001494  00000-0  11191-3 0  9996,2 53890  53.2185 359.8859 0001512  85.1296 274.9869 15.08844970 80838,6917.865,95.437,540.776,538.684,0.0
53890.0,STARLINK-5050,PAYLOAD,2024-03-03 03:14:39,15.08849182,0.0001447,53.2189,355.4275,93.9961,266.1197,4.6593e-05,4.54e-06,0.0,0 STARLINK-5050,1 53890U 22119E   24063.13518199  .00000454  00000-0  46593-4 0  9996,2 53890  53.2189 355.4275 0001447  93.9961 266.1197 15.08849182 80566,6917.852,95.437,540.718,538.716,0.0
53890.0,STARLINK-5050,PAYLOAD,2024-03-03 04:50:02,15.08852964,0.0001426,53.2188,355.1277,98.9059,261.2094,8.3769e-05,1.046e-05,0.0,0 STARLINK-5050,1 53890U 22119E   24063.20141845  .00001046  00000-0  83769-4 0  9998,2 53890  53.2188 355.1277 0001426  98.9059 261.2094 15.08852964 80995,6917.841,95.437,540.692,538.719,0.0
53890.0,STARLINK-5050,PAYLOAD,2024-03-04 01:30:03,15.0885069,0.0002718,53.2198,351.265,55.6286,304.4963,0.0001686,2.397e-05,0.0,0 STARLINK-5050,1 53890U 22119E   24064.06254423  .00002397  00000-0  16860-3 0  9997,2 53890  53.2198 351.2650 0002718  55.6286 304.4963 15.08850690 80703,6917.848,95.437,541.593,537.832,0.0
53890.0,STARLINK-5050,PAYLOAD,2024-03-04 04:40:49,15.08863403,0.0001807,53.2195,350.6666,84.6793,275.4405,0.00033628,5.071e-05,0.0,0 STARLINK-5050,1 53890U 22119E   24064.19501392  .00005071  00000-0  33628-3 0  9994,2 53890  53.2195 350.6666 0001807  84.6793 275.4405 15.08863403 80729,6917.809,95.436,540.924,538.424,0.0
53890.0,STARLINK-5050,PAYLOAD,2024-03-04 12:37:45,15.08841528,0.000152,53.2186,349.1807,92.4691,267.6475,8.545e-05,1.072e-05,0.0,0 STARLINK-5050,1 53890U 22119E   24064.52622262  .00001072  00000-0  85450-4 0  9999,2 53890  53.2186 349.1807 0001520  92.4691 267.6475 15.08841528 81191,6917.876,95.437,540.792,538.689,0.0
53890.0,STARLINK-5050,PAYLOAD,2024-03-04 22:10:04,15.08845128,0.0001314,53.2183,347.3965,92.2631,267.8512,3.6075e-06,-2.3e-06,0.0,0 STARLINK-5050,1 53890U 22119E   24064.92365895 -.00000230  00000-0  36075-5 0  9995,2 53890  53.2183 347.3965 0001314  92.2631 267.8512 15.08845128 81257,6917.865,95.437,540.639,538.821,0.0
53890.0,STARLINK-5050,PAYLOAD,2024-03-05 04:31:36,15.08851295,0.0001498,53.2181,346.2062,93.3488,266.7676,0.00010369,1.363e-05,0.0,0 STARLINK-5050,1 53890U 22119E   24065.18861493  .00001363  00000-0  10369-3 0  9992,2 53890  53.2181 346.2062 0001498  93.3488 266.7676 15.08851295 81291,6917.846,95.437,540.747,538.675,0.0
53890.0,STARLINK-5050,PAYLOAD,2024-03-06 01:11:37,15.08840266,0.0001368,53.2177,342.3407,100.8146,259.3,-0.00014612,-2.613e-05,0.0,0 STARLINK-5050,1 53890U 22119E   24066.04974196 -.00002613  00000-0 -14612-3 0  9999,2 53890  53.2177 342.3407 0001368 100.8146 259.3000 15.08840266 81001,6917.88,95.438,540.691,538.798,0.0
53890.0,STARLINK-5050,PAYLOAD,2024-03-06 04:22:23,15.08841182,0.0001261,53.2179,341.7432,97.2695,262.8441,-0.00010293,-1.926e-05,0.0,0 STARLINK-5050,1 53890U 22119E   24066.18222118 -.00001926  00000-0 -10293-3 0  9991,2 53890  53.2179 341.7432 0001261  97.2695 262.8441 15.08841182 81448,6917.877,95.437,540.614,538.869,0.0
53890.0,STARLINK-5050,PAYLOAD,2024-03-07 01:02:25,15.08833306,0.0001286,53.2175,337.8815,83.4351,276.6788,5.1846e-05,5.37e-06,0.0,0 STARLINK-5050,1 53890U 22119E   24067.04335259  .00000537  00000-0  51846-4 0  9993,2 53890  53.2175 337.8815 0001286  83.4351 276.6788 15.08833306 81152,6917.901,95.438,540.655,538.876,0.0
53890.0,STARLINK-5050,PAYLOAD,2024-03-08 10:25:31,15.08848584,0.0001256,53.2181,331.6402,91.4535,268.6601,0.00031305,4.699e-05,0.0,0 STARLINK-5050,1 53890U 22119E   24068.43438979  .00004699  00000-0  31305-3 0  9990,2 53890  53.2181 331.6402 0001256  91.4535 268.6601 15.08848584 81365,6917.854,95.437,540.588,538.85,0.0
